54667,ONEWEB-0603,2022,108.94,148.0,+,87.92,Active,1,LEO,USA,UK,Commercial,Communications,Falcon,1 54667U 22166AB  24012.59926754  .00000003  00000+0 -24190-4 0  9994,2 54667  87.9225  60.4631 0001342 100.2555 259.8730 13.21823980 54359,13.2182398,0.0001342,LEO
54668,ONEWEB-0604,2022,108.94,148.0,+,87.92,Active,1,LEO,USA,UK,Commercial,Communications,Falcon,1 54668U 22166AC  24012.58663552 -.00000008  00000+0 -51828-4 0  9992,2 54668  87.9219  60.4565 0001934 110.5067 249.6275 13.21825528 54315,13.21825528,0.0001934,LEO
54669,ONEWEB-0605,2022,108.94,148.0,+,87.92,Active,1,LEO,USA,UK,Commercial,Communications,Falcon,1 54669U 22166AD  24012.58031599  .00000002  00000+0 -26808-4 0  9996,2 54669  87.9217  60.4916 0001188  88.7319 271.3951 13.21829912 54382,13.21829912,0.0001188,LEO
54670,ONEWEB-0606,2022,108.94,148.0,+,87.92,Active,1,LEO,USA,UK,Commercial,Communications,Falcon,1 54670U 22166AE  24012.60240628  .00000065  00000+0  12516-3 0  9994,2 54670  87.9222  60.4687 0002064  96.5776 263.5593 13.21824723 54440,13.21824723,0.0002064,LEO
54671,ONEWEB-0607,2022,108.94,148.0,+,87.92,Active,1,LEO,USA,UK,Commercial,Communications,Falcon,1 54671U 22166AF  24012.56930795  .00000004  00000+0 -20711-4 0  9992,2 54671  87.9215  60.4585 0001502 103.1898 256.9403 13.21825469 54417,13.21825469,0.0001502,LEO
54672,ONEWEB-0608,2022,108.94,148.0,+,87.92,Active,1,LEO,USA,UK,Commercial,Communications,Falcon,1 54672U 22166AG  24012.57559726  .00000027  00000+0  34977-4 0  9998,2 54672  87.9224  60.4697 0001115  93.0977 267.0284 13.21825196 54425,13.21825196,0.0001115,LEO
54673,ONEWEB-0610,2022,108.94,148.0,+,87.92,Active,1,LEO,USA,UK,Commercial,Communications,Falcon,1 54673U 22166AH  24012.55668182 -.00000006  00000+0 -46619-4 0  9999,2 54673  87.9228  60.4752 0001296  95.1315 264.9967 13.21824732 54329,13.21824732,0.0001296,LEO
54674,ONEWEB-0611,2022,108.94,148.0,+,87.92,Active,1,LEO,USA,UK,Commercial,Communications,Falcon,1 54674U 22166AJ  24012.62606057  .00000068  00000+0  13303-3 0  9990,2 54674  87.9227  60.4614 0002311 102.6353 257.5039 13.21824253 54798,13.21824253,0.0002311,LEO
